[{"OBJECT_NAME":"STARLINK-34535","OBJECT_ID":"2025-142C","EPOCH":"2026-03-09T22:20:52.561824","MEAN_MOTION":14.98315048,"ECCENTRICITY":0.00027672,"INCLINATION":70.0028,"RA_OF_ASC_NODE":313.9569,"ARG_OF_PERICENTER":237.0981,"MEAN_ANOMALY":122.9912,"EPHEMERIS_TYPE":0,"CLASSIFICATION_TYPE":"U","NORAD_CAT_ID":64698,"ELEMENT_SET_NO":999,"REV_AT_EPOCH":3950,"BSTAR":0.00014002144,"MEAN_MOTION_DOT":1.578e-5,"MEAN_MOTION_DDOT":0},{"OBJECT_NAME":"METHANESAT","OBJECT_ID":"2024-043D","EPOCH":"2026-03-09T22:12:33.121440","MEAN_MOTION":14.97588653,"ECCENTRICITY":0.00100526,"INCLINATION":97.8288,"RA_OF_ASC_NODE":199.6058,"ARG_OF_PERICENTER":350.2517,"MEAN_ANOMALY":9.8508,"EPHEMERIS_TYPE":0,"CLASSIFICATION_TYPE":"U","NORAD_CAT_ID":59101,"ELEMENT_SET_NO":999,"REV_AT_EPOCH":10979,"BSTAR":0.00032562202,"MEAN_MOTION_DOT":3.748e-5,"MEAN_MOTION_DDOT":0}]
